COSMOS 1892             
1 18421U 87088A   19165.80908774  .00000387  00000-0  17991-4 0  9991
2 18421  82.5008 278.2904 0013629 265.2538  94.7139 15.16837240728664
SL-14 R/B               
1 18749U 88001B   19165.94512182  .00000068  00000-0  53819-5 0  9995
2 18749  82.5132 342.9781 0020261  74.1516  37.0148 14.83190066677248
COSMOS 1933             
1 18958U 88020A   19165.99499026 -.00000093  00000-0 -88778-5 0  9996
2 18958  82.5290 121.3622 0010710 334.6180  25.4518 15.03599268700886
SL-3 R/B                
1 19046U 88032B   19165.94585302  .00000031  00000-0  67644-5 0  9995
2 19046  97.4378 197.6192 0038323  24.4472 335.8560 15.02591953681620
SL-16 R/B               
1 19120U 88039B   19166.12259004 -.00000004  00000-0  21155-4 0  9990
2 19120  71.0136 226.8097 0021136 157.4947 202.7110 14.19196410609663
COSMOS 1953             
1 19210U 88050A   19165.79177802 -.00000103  00000-0 -91335-5 0  9999
2 19210  82.5173  47.6220 0011550 302.2770  57.7337 15.05783323666181
SL-8 R/B                
1 19257U 88053B   19165.87864343 -.00000020  00000-0  20281-5 0  9994
2 19257  74.0490 318.6670 0020129  26.6440 125.5486 14.37440444623048
COSMOS 1975             
1 19573U 88093A   19166.09808425  .00000449  00000-0  29851-4 0  9998
2 19573  82.5197   0.9123 0013848 344.2689  15.8105 15.04699219669258
SL-14 R/B               
1 19574U 88093B   19165.57424175  .00000074  00000-0  60847-5 0  9992
2 19574  82.5311 184.9713 0020278 236.0335 240.0838 14.83299654657275
SL-16 R/B               
1 19650U 88102B   19165.74536424 -.00000137  00000-0 -45592-4 0  9999
2 19650  70.9999 285.2169 0013643 164.0337 196.1219 14.15779893578698
INTERCOSMOS 24          
1 20261U 89080A   19165.78599161  .00000226  00000-0  65260-4 0  9997
2 20261  82.6052 258.8078 1202297 218.4784 132.4383 12.56071508357308
SL-14 R/B               
1 20262U 89080C   19165.83711921  .00000009  00000-0 -48972-5 0  9996
2 20262  82.5928 310.0338 1237435  37.6487 330.5005 12.48918161352979
DELTA 2 R/B(1)          
1 20303U 89085B   19166.43804543  .00000873  00000-0  30980-4 0  9994
2 20303  35.6251 160.5993 0096980 146.6093 214.0797 15.26258518611782
DELTA 1 R/B             
1 20323U 89089B   19166.53899274  .00000050  00000-0  22191-4 0  9998
2 20323  97.0686   6.9954 0070560 310.2819  49.2223 14.48304615560147
DELTA 2 R/B(1)          
1 20362U 89097B   19166.22007486  .00021537  00000-0  13708-3 0  9998
2 20362  35.6024  89.6866 0029227 303.5651 211.2605 15.74829355613762
ARIANE 40 R/B           
1 20443U 90005H   19166.24034655 -.00000006  00000-0  12792-4 0  9991
2 20443  98.6257 222.5874 0010371   6.2590 353.8725 14.38062724539452
DELTA 2 R/B(1)          
1 20453U 90008B   19166.42767229  .00000591  00000-0  36917-4 0  9998
2 20453  35.6238 265.3277 0282428 114.3219 248.7256 14.84883631556457
COSMOS 2058             
1 20465U 90010A   19165.78000155  .00000170  00000-0  12125-4 0  9998
2 20465  82.4900 268.0595 0015593   9.6132 350.5386 14.97879852573130
SL-14 R/B               
1 20466U 90010B   19165.73968400  .00000072  00000-0  61353-5 0  9999
2 20466  82.5044  51.8249 0022010 107.4438 252.9184 14.81357217585204
SL-14 R/B               
1 20511U 90018B   19166.14699394  .00000052  00000-0  38006-5 0  9994
2 20511  82.5223 356.1729 0016072 243.6982 250.4362 14.80013987579730
HST                     
1 20580U 90037B   19166.24177080  .00000354  00000-0  10605-4 0  9994
2 20580  28.4685 234.7520 0002950  87.0334 337.3950 15.09235739400361
SL-16 R/B               
1 20625U 90046B   19165.89416081  .00000261  00000-0  16028-3 0  9992
2 20625  71.0000  61.7869 0012352  81.2256 279.0265 14.14641218500490
COSMOS 2084             
1 20663U 90055A   19165.97465125 -.00000050  00000-0  13781-4 0  9997
2 20663  62.7945 318.4205 0076438 167.4808 192.8208 14.91984815568387
SL-6 R/B(2)             
1 20666U 90055D   19166.49262622 -.00000079  00000-0  10514-4 0  9997
2 20666  62.7858 233.9230 0042003 202.3053 157.6215 14.92249420569851
SL-8 R/B                
1 20775U 90078B   19166.12922576  .00000684  00000-0  32991-4 0  9998
2 20775  82.9261 170.1162 0575982 254.7950  98.8881 14.33341511452950
SL-8 R/B                
1 21088U 91006B   19166.53855272 -.00000014  00000-0 -29602-4 0  9995
2 21088  82.9421 198.7611 0024013  82.1010  25.9074 13.77119567425849
OKEAN-3                 
1 21397U 91039A   19166.06782380  .00000178  00000-0  14683-4 0  9993
2 21397  82.5205 166.8261 0016902 327.0334  32.9831 14.92809909518366
COSMOS 2151             
1 21422U 91042A   19166.42388109  .00000117  00000-0  89648-5 0  9994
2 21422  82.5010 273.3071 0014822  28.4349 331.7677 14.92051889517081
SL-14 R/B               
1 21423U 91042B   19166.07287049  .00000076  00000-0  69880-5 0  9997
2 21423  82.4933   1.1895 0018360  30.5235 329.7042 14.79764954510226
ERS-1                   
1 21574U 91050A   19165.91381414 -.00000002  00000-0  14167-4 0  9993
2 21574  98.5495 115.2485 0032036 305.8820  53.9394 14.37698869462148
ARIANE 40 R/B           
1 21610U 91050F   19166.29270937 -.00000001  00000-0  13386-4 0  9994
2 21610  98.5087 233.2510 0001979 290.1678 111.4217 14.40873875464967
INTERCOSMOS 25          
1 21819U 91086A   19166.46292608  .00000923  00000-0  18664-3 0  9997
2 21819  82.5883 346.5382 1516771 336.2117  17.5366 12.04999206199985
SL-8 R/B                
1 21876U 92008B   19165.91740769  .00000005  00000-0 -10959-4 0  9992
2 21876  82.9263 296.3239 0035316 160.7846 317.7230 13.75635123371202
SL-8 R/B                
1 21938U 92020B   19165.96519185 -.00000060  00000-0 -77480-4 0  9990
2 21938  82.9291 180.1518 0028287 324.0872  97.8316 13.75274009363029
COSMOS 2219             
1 22219U 92076A   19166.40305171  .00000169  00000-0  11413-3 0  9993
2 22219  71.0577 116.5505 0018076 351.3161   8.7646 14.13632211371129
SL-16 R/B               
1 22220U 92076B   19165.87219213  .00000137  00000-0  92840-4 0  9995
2 22220  71.0000 327.4650 0014836 247.5245 217.2413 14.16442301373487
COSMOS 2221             
1 22236U 92080A   19165.88634923  .00000130  00000-0  11445-4 0  9992
2 22236  82.5089  91.8840 0018240 103.5100 256.8151 14.87834291414479
SL-16 R/B               
1 22285U 92093B   19165.93210406  .00000176  00000-0  11521-3 0  9996
2 22285  71.0206 125.6250 0002250 109.1426 250.9941 14.15031258365206
COSMOS 2228             
1 22286U 92094A   19166.16076209  .00000150  00000-0  13622-4 0  9992
2 22286  82.5213  47.4122 0020063 221.4150 138.5548 14.88049447430740
SL-16 R/B               
1 22566U 93016B   19166.50424367  .00000166  00000-0  11019-3 0  9992
2 22566  71.0079 338.1156 0008352 109.3658 250.8368 14.14960558354304
COSMOS 2242             
1 22626U 93024A   19166.30499571  .00000131  00000-0  11559-4 0  9997
2 22626  82.5231  75.2502 0017845 220.2085 139.7813 14.87910243414411
SL-16 R/B               
1 22803U 93059B   19165.50739241  .00000246  00000-0  14654-3 0  9999
2 22803  70.9887 156.7712 0017481 350.6657   9.4139 14.16809203331049
ARIANE 40 R/B           
1 22830U 93061H   19165.72410729 -.00000021  00000-0  92989-5 0  9994
2 22830  98.8149 205.3825 0010135 327.0935  32.9616 14.31435804342076
COSMOS 2278             
1 23087U 94023A   19165.76823319  .00000182  00000-0  12094-3 0  9999
2 23087  71.0552 278.2624 0009168 196.7146 163.3676 14.13793998297083
SL-16 R/B               
1 23088U 94023B   19166.15253849 -.00000218  00000-0 -88569-4 0  9992
2 23088  70.9988 194.1521 0001199  37.0087 323.1118 14.14678074298495
SL-16 R/B               
1 23343U 94074B   19165.73051671  .00000009  00000-0  86477-5 0  9997
2 23343  98.0522 215.7523 0005534 253.7827 216.6523 14.76780647323990
SL-16 R/B               
1 23405U 94077B   19165.95157314 -.00000286  00000-0 -12268-3 0  9998
2 23405  70.9823 125.2644 0004837 284.5291  75.5295 14.15209140268222
ERS-2                   
1 23560U 95021A   19166.34539486  .00000725  00000-0  35019-4 0  9994
2 23560  98.5041 265.7604 0003391  10.6049 349.5255 15.22567901286121
ARIANE 40+ R/B          
1 23561U 95021B   19166.07832146  .00000017  00000-0  21055-4 0  9993
2 23561  98.7657 193.6664 0005712 263.9648 153.6362 14.37924500265856
SL-16 R/B               
1 23705U 95058B   19165.81863101 -.00000152  00000-0 -53615-4 0  9998
2 23705  71.0214 302.3940 0014805 269.0288  90.9139 14.15127544219825
SL-16 R/B               
1 24298U 96051B   19166.46730235  .00000070  00000-0  64278-4 0  9997
2 24298  70.8270 326.4746 0017633 189.8982 170.1793 14.12404291174657
ORBVIEW 2 (SEASTAR)     
1 24883U 97037A   19165.93871762 -.00000001  00000-0  15414-4 0  9997
2 24883  98.5840 276.6963 0003497 108.4638 251.6927 14.33507849155910
SL-16 R/B               
1 25400U 98043G   19165.91829287 -.00000041  00000-0  98345-6 0  9994
2 25400  98.5722 104.4163 0009447 336.3425  23.7320 14.25441273 88742
SL-16 R/B               
1 25407U 98045B   19165.81440928  .00000021  00000-0  35091-4 0  9997
2 25407  71.0115 312.3167 0008077 192.8475 167.2443 14.15783966 78907
ISS (ZARYA)             
1 25544U 98067A   19166.70843013  .00001099  00000-0  26266-4 0  9994
2 25544  51.6441   8.6379 0008143  52.7169  65.3771 15.51201813175023
SL-8 R/B                
1 25723U 99022C   19166.40458795  .00005832  00000-0  61952-4 0  9991
2 25723  48.4126 211.9229 0008217 330.8758  29.1733 15.65530347120179
CZ-4B R/B               
1 25732U 99025C   19166.49402397 -.00000016  00000-0  14483-4 0  9997
2 25732  98.9760 186.9671 0037414 177.0253 309.8524 14.17664512 39822
OKEAN-O                 
1 25860U 99039A   19165.95217481  .00000011  00000-0  92789-5 0  9992
2 25860  98.2257 173.1933 0001169  66.5691 293.5641 14.76609361 71138
SL-16 R/B               
1 25861U 99039B   19166.04436928  .00000006  00000-0  83265-5 0  9996
2 25861  98.1882 156.3340 0014320 260.5151 140.1036 14.78533625 73326
